*******************************************************************************
JPL/HORIZONS               623 Chimaera (A907 BC)          2025-Nov-06 09:13:22
Rec #:     623 (+COV) Soln.date: 2025-Oct-29_16:15:46   # obs: 5712 (1907-2025)
 
IAU76/J2000 helio. ecliptic osc. elements (au, days, deg., period=Julian yrs):
 
  EPOCH=  2457967.5 ! 2017-Aug-02.00 (TDB)         Residual RMS= .21631
   EC= .1132256310083589   QR= 2.182559950554119   TP= 2458280.9457503096
   OM= 308.3363204627432   W=  124.3066345698158   IN= 14.12502259078669
   A= 2.46123481561147     MA= 279.9913605564806   ADIST= 2.73990968066882
   PER= 3.86134            N= .255255142           ANGMOM= .026813662
   DAN= 2.5953             DDN= 2.28393            L= 73.4663977
   B= 11.6295971           MOID= 1.22950006        TP= 2018-Jun-11.4457503096
 
Asteroid physical parameters (km, seconds, rotational period in hours):
   GM= n.a.                RAD= 22.045             ROTPER= 14.635
   H= 10.83                G= .150                 B-V= .714
                           ALBEDO= .0372           STYP= XC

ASTEROID comments: 
1: soln ref.= JPL#109, OCC=0
2: source=ORB
*******************************************************************************


*******************************************************************************
Ephemeris / WWW_USER Thu Nov  6 09:13:22 2025 Pasadena, USA      / Horizons
*******************************************************************************
Target body name: 623 Chimaera (A907 BC)          {source: JPL#109}
Center body name: Sun (10)                        {source: DE441}
Center-site name: BODY CENTER
*******************************************************************************
Start time      : A.D. 2025-Nov-05 00:00:00.0000 TDB
Stop  time      : A.D. 2060-Jan-01 00:00:00.0000 TDB
Step-size       : 1440 minutes
*******************************************************************************
Center geodetic : 0.0, 0.0, 0.0                   {E-lon(deg),Lat(deg),Alt(km)}
Center cylindric: 0.0, 0.0, 0.0                   {E-lon(deg),Dxy(km),Dz(km)}
Center radii    : 695700.0, 695700.0, 695700.0 km {Equator_a, b, pole_c}
Small perturbers: Yes                             {source: SB441-N16}
Output units    : KM-S
Calendar mode   : Mixed Julian/Gregorian
Output type     : GEOMETRIC cartesian states
Output format   : 3 (position, velocity, LT, range, range-rate)
Reference frame : Ecliptic of J2000.0
*******************************************************************************
Initial IAU76/J2000 heliocentric ecliptic osculating elements (au, days, deg.):
  EPOCH=  2457967.5 ! 2017-Aug-02.00 (TDB)         Residual RMS= .21631        
   EC= .1132256310083589   QR= 2.182559950554119   TP= 2458280.9457503096      
   OM= 308.3363204627432   W=  124.3066345698158   IN= 14.12502259078669       
  Equivalent ICRF heliocentric cartesian coordinates (au, au/d):
   X= 2.261433559084057E+00  Y=-9.250723996936762E-01  Z=-6.321483047307375E-02
  VX= 2.438681673264224E-03 VY= 8.838106645153726E-03 VZ= 6.152345034321284E-03
Asteroid physical parameters (km, seconds, rotational period in hours):        
   GM= n.a.                RAD= 22.045             ROTPER= 14.635              
   H= 10.83                G= .150                 B-V= .714                   
                           ALBEDO= .0372           STYP= XC                    
*******************************************************************************
            JDTDB,            Calendar Date (TDB),                      X,                      Y,                      Z,                     VX,                     VY,                     VZ,                     LT,                     RG,                     RR,
**************************************************************************************************************************************************************************************************************************************************************************
$$SOE
2461468.500000000, A.D. 2027-Mar-04 00:00:00.0000, -3.678359538962913E+08,  1.469015430717709E+07, -7.037986328239375E+07, -2.207804508476945E+00, -1.822586607653477E+01, -3.277135714752755E+00,  1.250186546742586E+03,  3.747964978064919E+08,  2.067824700721188E+00,
2461469.500000000, A.D. 2027-Mar-05 00:00:00.0000, -3.680232485186260E+08,  1.311530724841490E+07, -7.066234482199211E+07, -2.127731432676865E+00, -1.822886910783678E+01, -3.261782221530740E+00,  1.250782139812950E+03,  3.749750521170239E+08,  2.065370990384882E+00,
2461470.500000000, A.D. 2027-Mar-06 00:00:00.0000, -3.682036280274013E+08,  1.154021570698992E+07, -7.094349811698014E+07, -2.047732646271983E+00, -1.823152555424068E+01, -3.246389377770299E+00,  1.251377020595585E+03,  3.751533928890671E+08,  2.062881704928980E+00,
2461471.500000000, A.D. 2027-Mar-07 00:00:00.0000, -3.683770988957618E+08,  9.964909587163325E+06, -7.122331978456663E+07, -1.967809410257698E+00, -1.823383635761267E+01, -3.230957578954785E+00,  1.251971178859187E+03,  3.753315170553532E+08,  2.060356992993977E+00,
2461472.500000000, A.D. 2027-Mar-08 00:00:00.0000, -3.685436677054082E+08,  8.389418711732373E+06, -7.150180647606756E+07, -1.887962976522128E+00, -1.823580246181609E+01, -3.215487219119686E+00,  1.252564604415271E+03,  3.755094215614517E+08,  2.057797003115083E+00,
2461473.500000000, A.D. 2027-Mar-09 00:00:00.0000, -3.687033411458129E+08,  6.813772821860168E+06, -7.177895487678096E+07, -1.808194587906102E+00, -1.823742481265717E+01, -3.199978690849474E+00,  1.253157287118149E+03,  3.756871033657618E+08,  2.055201883730848E+00,
2461474.500000000, A.D. 2027-Mar-10 00:00:00.0000, -3.688561260134413E+08,  5.238001576910201E+06, -7.205476170586139E+07, -1.728505478259792E+00, -1.823870435783088E+01, -3.184432385274873E+00,  1.253749216864899E+03,  3.758645594395032E+08,  2.052571783188788E+00,
2461475.500000000, A.D. 2027-Mar-11 00:00:00.0000, -3.690020292109766E+08,  3.662134554285455E+06, -7.232922371619412E+07, -1.648896872496618E+00, -1.823964204686737E+01, -3.168848692070555E+00,  1.254340383595339E+03,  3.760417867667095E+08,  2.049906849748638E+00,
2461476.500000000, A.D. 2027-Mar-12 00:00:00.0000, -3.691410577465506E+08,  2.086201249272153E+06, -7.260233769426948E+07, -1.569369986644896E+00, -1.824023883107825E+01, -3.153227999453097E+00,  1.254930777292001E+03,  3.762187823442197E+08,  2.047207231583668E+00,
2461477.500000000, A.D. 2027-Mar-13 00:00:00.0000, -3.692732187329779E+08,  5.102310748881921E+05, -7.287410046005653E+07, -1.489926027897649E+00, -1.824049566350262E+01, -3.137570694179230E+00,  1.255520387980114E+03,  3.763955431816720E+08,  2.044473076780418E+00,
2461478.500000000, A.D. 2027-Mar-14 00:00:00.0000, -3.693985193869945E+08, -1.065746638263810E+06, -7.314450886687703E+07, -1.410566194660867E+00, -1.824041349885348E+01, -3.121877161544300E+00,  1.256109205727566E+03,  3.765720663014948E+08,  2.041704533337135E+00,
2461479.500000000, A.D. 2027-Mar-15 00:00:00.0000, -3.695169670285007E+08, -2.641702642138820E+06, -7.341355980127916E+07, -1.331291676601092E+00, -1.823999329346318E+01, -3.106147785380848E+00,  1.256697220644889E+03,  3.767483487388997E+08,  2.038901749161706E+00,
2461480.500000000, A.D. 2027-Mar-16 00:00:00.0000, -3.696285690798085E+08, -4.217607771386940E+06, -7.368125018291086E+07, -1.252103654691215E+00, -1.823923600523057E+01, -3.090382948057567E+00,  1.257284422885228E+03,  3.769243875418739E+08,  2.036064872068026E+00,
2461481.500000000, A.D. 2027-Mar-17 00:00:00.0000, -3.697333330648918E+08, -5.793432943486437E+06, -7.394757696439353E+07, -1.173003301256404E+00, -1.823814259356650E+01, -3.074583030478161E+00,  1.257870802644313E+03,  3.771001797711713E+08,  2.033194049772605E+00,
2461482.500000000, A.D. 2027-Mar-18 00:00:00.0000, -3.698312666086412E+08, -7.369149158872079E+06, -7.421253713119532E+07, -1.093991780019277E+00, -1.823671401933990E+01, -3.058748412080473E+00,  1.258456350160431E+03,  3.772757225003043E+08,  2.030289429890548E+00,
2461483.500000000, A.D. 2027-Mar-19 00:00:00.0000, -3.699223774361233E+08, -8.944727501058742E+06, -7.447612770150444E+07, -1.015070246144433E+00, -1.823495124482447E+01, -3.042879470835721E+00,  1.259041055714398E+03,  3.774510128155343E+08,  2.027351159931026E+00,
2461484.500000000, A.D. 2027-Mar-20 00:00:00.0000, -3.700066733718427E+08, -1.052013913676057E+07, -7.473834572610246E+07, -9.362398462835869E-01, -1.823285523364519E+01, -3.026976583247795E+00,  1.259624909629526E+03,  3.776260478158634E+08,  2.024379387293401E+00,
2461485.500000000, A.D. 2027-Mar-21 00:00:00.0000, -3.700841623390085E+08, -1.209535531600532E+07, -7.499918828823744E+07, -8.575017186189933E-01, -1.823042695072586E+01, -3.011040124352875E+00,  1.260207902271589E+03,  3.778008246130234E+08,  2.021374259261829E+00,
2461486.500000000, A.D. 2027-Mar-22 00:00:00.0000, -3.701548523588044E+08, -1.367034737224443E+07, -7.525865250349718E+07, -7.788569929083808E-01, -1.822766736223624E+01, -2.995070467718914E+00,  1.260790024048794E+03,  3.779753403314670E+08,  2.018335923001349E+00,
2461487.500000000, A.D. 2027-Mar-23 00:00:00.0000, -3.702187515496629E+08, -1.524508672245830E+07, -7.551673551968227E+07, -7.003067905291933E-01, -1.822457743554002E+01, -2.979067985445373E+00,  1.261371265411740E+03,  3.781495921083559E+08,  2.015264525553418E+00,
2461488.500000000, A.D. 2027-Mar-24 00:00:00.0000, -3.702758681265432E+08, -1.681954486725733E+07, -7.577343451667926E+07, -6.218522245226795E-01, -1.822115813914365E+01, -2.963033048163090E+00,  1.261951616853388E+03,  3.783235770935515E+08,  2.012160213831391E+00,
2461489.500000000, A.D. 2027-Mar-25 00:00:00.0000, -3.703262104002127E+08, -1.839369339097840E+07, -7.602874670633386E+07, -5.434943996386079E-01, -1.821741044264586E+01, -2.946966025034242E+00,  1.262531068909019E+03,  3.784972924496023E+08,  2.009023134616717E+00,
